NORAD_CAT_ID,OBJECT_NAME,OBJECT_TYPE,EPOCH,MEAN_MOTION,ECCENTRICITY,INCLINATION,RA_OF_ASC_NODE,ARG_OF_PERICENTER,MEAN_ANOMALY,BSTAR,MEAN_MOTION_DOT,MEAN_MOTION_DDOT,TLE_LINE0,TLE_LINE1,TLE_LINE2,SEMIMAJOR_AXIS,PERIOD,APOGEE,PERIGEE,DECAYED
52472.0,STARLINK-3881,PAYLOAD,2024-06-21 19:16:23,15.08840507,0.0001115,53.2181,348.8405,91.4297,268.6822,0.00011072,1.475e-05,0.0,0 STARLINK-3881,1 52472U 22049X   24173.80305187  .00001475  00000-0  11072-3 0  9997,2 52472  53.2181 348.8405 0001115  91.4297 268.6822 15.08840507117768,6917.879,95.438,540.515,538.972,0.0
52472.0,STARLINK-3881,PAYLOAD,2024-06-22 11:10:15,15.08838497,0.0001101,53.2175,345.8663,87.0852,273.0267,9.9177e-05,1.291e-05,0.0,0 STARLINK-3881,1 52472U 22049X   24174.46545433  .00001291  00000-0  99177-4 0  9999,2 52472  53.2175 345.8663 0001101  87.0852 273.0267 15.08838497117866,6917.885,95.438,540.512,538.988,0.0
52472.0,STARLINK-3881,PAYLOAD,2024-06-22 20:42:33,15.08846377,0.0001104,53.2173,344.0815,94.1162,265.9957,0.00013784,1.907e-05,0.0,0 STARLINK-3881,1 52472U 22049X   24174.86288863  .00001907  00000-0  13784-3 0  9997,2 52472  53.2173 344.0815 0001104  94.1162 265.9957 15.08846377118087,6917.861,95.437,540.49,538.962,0.0
52472.0,STARLINK-3881,PAYLOAD,2024-06-23 11:01:02,15.08840331,0.000128,53.2174,341.4034,84.9645,275.1494,1.7423e-05,-1.1e-07,0.0,0 STARLINK-3881,1 52472U 22049X   24175.45905656 -.00000011  00000-0  17423-4 0  9990,2 52472  53.2174 341.4034 0001280  84.9645 275.1494 15.08840331118173,6917.879,95.438,540.63,538.859,0.0
52472.0,STARLINK-3881,PAYLOAD,2024-06-23 17:22:35,15.08838681,0.0001134,53.2191,340.2178,77.6101,282.5018,4.1063e-05,3.66e-06,0.0,0 STARLINK-3881,1 52472U 22049X   24175.72401671  .00000366  00000-0  41063-4 0  9997,2 52472  53.2191 340.2178 0001134  77.6101 282.5018 15.08838681118058,6917.884,95.438,540.534,538.965,0.0
52472.0,STARLINK-3881,PAYLOAD,2024-06-24 17:13:22,15.08841988,0.0001107,53.2193,335.755,92.8637,267.2482,3.0865e-05,2.03e-06,0.0,0 STARLINK-3881,1 52472U 22049X   24176.71761676  .00000203  00000-0  30865-4 0  9999,2 52472  53.2193 335.7550 0001107  92.8637 267.2482 15.08841988118369,6917.874,95.437,540.505,538.974,0.0
52472.0,STARLINK-3881,PAYLOAD,2024-06-25 13:53:22,15.08857706,0.0001192,53.2188,331.8915,92.2118,267.9011,-6.737e-05,-1.36e-05,0.0,0 STARLINK-3881,1 52472U 22049X   24177.57872932 -.00001360  00000-0 -67370-4 0  9990,2 52472  53.2188 331.8915 0001192  92.2118 267.9011 15.08857706118334,6917.826,95.436,540.516,538.867,0.0
52472.0,STARLINK-3881,PAYLOAD,2024-06-25 17:04:08,15.08854588,0.0001301,53.2194,331.2959,93.6215,266.4926,6.5518e-05,7.55e-06,0.0,0 STARLINK-3881,1 52472U 22049X   24177.71120776  .00000755  00000-0  65518-4 0  9995,2 52472  53.2194 331.2959 0001301  93.6215 266.4926 15.08854588118512,6917.836,95.437,540.601,538.801,0.0
52472.0,STARLINK-3881,PAYLOAD,2024-06-27 13:34:56,15.08842158,0.0001292,53.2186,322.9732,91.8042,268.3098,1.718e-05,-1.4e-07,0.0,0 STARLINK-3881,1 52472U 22049X   24179.56593258 -.00000014  00000-0  17180-4 0  9990,2 52472  53.2186 322.9732 0001292  91.8042 268.3098 15.08842158118797,6917.874,95.437,540.633,538.845,0.0
52472.0,STARLINK-3881,PAYLOAD,2024-06-27 19:56:30,15.08812228,0.0001507,53.2189,321.7787,89.4168,270.6997,0.00050654,7.777e-05,0.0,0 STARLINK-3881,1 52472U 22049X   24179.83090310  .00007777  00000-0  50654-3 0  9995,2 52472  53.2189 321.7787 0001507  89.4168 270.6997 15.08812228118832,6917.965,95.439,540.873,538.788,0.0
52472.0,STARLINK-3881,PAYLOAD,2024-06-28 02:18:02,15.08833362,0.0001361,53.2176,320.5851,100.5419,259.5726,3.138e-06,-2.38e-06,0.0,0 STARLINK-3881,1 52472U 22049X   24180.09586043 -.00000238  00000-0  31380-5 0  9991,2 52472  53.2176 320.5851 0001361 100.5419 259.5726 15.08833362118871,6917.901,95.438,540.707,538.824,0.0
52472.0,STARLINK-3881,PAYLOAD,2024-06-28 13:25:43,15.08839602,0.0001139,53.2158,318.5018,67.6318,292.4795,0.00012627,1.722e-05,0.0,0 STARLINK-3881,1 52472U 22049X   24180.55953312  .00001722  00000-0  12627-3 0  9998,2 52472  53.2158 318.5018 0001139  67.6318 292.4795 15.08839602118940,6917.882,95.438,540.535,538.959,0.0
52472.0,STARLINK-3881,PAYLOAD,2024-06-28 16:36:28,15.0886171,0.0001162,53.2162,317.9114,99.9109,260.2014,0.00037404,5.673e-05,0.0,0 STARLINK-3881,1 52472U 22049X   24180.69200131  .00005673  00000-0  37404-3 0  9996,2 52472  53.2162 317.9114 0001162  99.9109 260.2014 15.08861710118961,6917.814,95.436,540.483,538.875,0.0
52472.0,STARLINK-3881,PAYLOAD,2024-06-29 02:08:48,15.08852034,0.0001421,53.2167,316.1278,69.1815,290.933,0.0002129,3.103e-05,0.0,0 STARLINK-3881,1 52472U 22049X   24181.08944495  .00003103  00000-0  21290-3 0  9990,2 52472  53.2167 316.1278 0001421  69.1815 290.9330 15.08852034119027,6917.844,95.437,540.692,538.726,0.0
52472.0,STARLINK-3881,PAYLOAD,2024-06-29 13:16:30,15.08834038,0.0001735,53.2165,314.0469,73.3206,286.7976,-4.079e-05,-9.37e-06,0.0,0 STARLINK-3881,1 52472U 22049X   24181.55313604 -.00000937  00000-0 -40790-4 0  9995,2 52472  53.2165 314.0469 0001735  73.3206 286.7976 15.08834038119093,6917.899,95.438,540.964,538.563,0.0
52472.0,STARLINK-3881,PAYLOAD,2024-06-30 14:42:41,15.08829426,0.0001258,53.2131,309.2884,77.5883,282.525,-4.8508e-05,-1.06e-05,0.0,0 STARLINK-3881,1 52472U 22049X   24182.61298334 -.00001060  00000-0 -48508-4 0  9998,2 52472  53.2131 309.2884 0001258  77.5883 282.5250 15.08829426119094,6917.913,95.438,540.648,538.907,0.0
52472.0,STARLINK-3881,PAYLOAD,2024-06-30 17:53:27,15.0884819,0.0001509,53.218,308.6925,63.9501,296.1647,-1.0297e-05,-4.52e-06,0.0,0 STARLINK-3881,1 52472U 22049X   24182.74545711 -.00000452  00000-0 -10297-4 0  9994,2 52472  53.2180 308.6925 0001509  63.9501 296.1647 15.08848190119272,6917.855,95.437,540.764,538.676,0.0
52472.0,STARLINK-3881,PAYLOAD,2024-07-01 12:58:05,15.0883804,0.0001553,53.2173,305.1287,69.487,290.6288,0.0001835,2.633e-05,0.0,0 STARLINK-3881,1 52472U 22049X   24183.54033950  .00002633  00000-0  18350-3 0  9998,2 52472  53.2173 305.1287 0001553  69.4870 290.6288 15.08838040119392,6917.886,95.438,540.826,538.677,0.0
52472.0,STARLINK-3881,PAYLOAD,2024-07-01 14:33:28,15.08835116,0.0001138,53.2172,304.8307,69.3283,290.7832,0.00015834,2.233e-05,0.0,0 STARLINK-3881,1 52472U 22049X   24183.60658123  .00002233  00000-0  15834-3 0  9990,2 52472  53.2172 304.8307 0001138  69.3283 290.7832 15.08835116119247,6917.895,95.438,540.548,538.973,0.0
52472.0,STARLINK-3881,PAYLOAD,2024-07-02 12:48:52,15.08833207,0.0001384,53.2151,300.666,88.4761,271.639,0.00013297,1.829e-05,0.0,0 STARLINK-3881,1 52472U 22049X   24184.53394506  .00001829  00000-0  13297-3 0  9996,2 52472  53.2151 300.6660 0001384  88.4761 271.6390 15.08833207119545,6917.901,95.438,540.724,538.809,0.0
52472.0,STARLINK-3881,PAYLOAD,2024-07-02 14:24:15,15.08834417,0.0001276,53.2155,300.3691,89.0322,271.0816,0.00015208,2.133e-05,0.0,0 STARLINK-3881,1 52472U 22049X   24184.60018404  .00002133  00000-0  15208-3 0  9997,2 52472  53.2155 300.3691 0001276  89.0322 271.0816 15.08834417119394,6917.897,95.438,540.645,538.88,0.0
52472.0,STARLINK-3881,PAYLOAD,2024-07-02 17:35:02,15.08839897,0.0001397,53.217,299.7731,92.8756,267.2396,9.211e-05,1.178e-05,0.0,0 STARLINK-3881,1 52472U 22049X   24184.73266236  .00001178  00000-0  92110-4 0  9995,2 52472  53.2170 299.7731 0001397  92.8756 267.2396 15.08839897119414,6917.881,95.438,540.712,538.779,0.0
52472.0,STARLINK-3881,PAYLOAD,2024-07-03 14:15:02,15.08841456,0.0001207,53.2165,295.9083,85.775,274.338,8.0842e-05,9.99e-06,0.0,0 STARLINK-3881,1 52472U 22049X   24185.59378232  .00000999  00000-0  80842-4 0  9999,2 52472  53.2165 295.9083 0001207  85.7750 274.3380 15.08841456119709,6917.876,95.437,540.576,538.906,0.0
52472.0,STARLINK-3881,PAYLOAD,2024-07-03 23:47:22,15.08805617,0.0001187,53.2148,294.1221,98.8348,261.2779,0.0005147,7.905e-05,0.0,0 STARLINK-3881,1 52472U 22049X   24185.99123806  .00007905  00000-0  51470-3 0  9996,2 52472  53.2148 294.1221 0001187  98.8348 261.2779 15.08805617119762,6917.985,95.44,540.672,539.029,0.0
52472.0,STARLINK-3881,PAYLOAD,2024-07-04 12:30:27,15.08832875,0.0001452,53.2187,291.7467,96.3046,263.8111,6.7962e-05,7.94e-06,0.0,0 STARLINK-3881,1 52472U 22049X   24186.52114947  .00000794  00000-0  67962-4 0  9995,2 52472  53.2187 291.7467 0001452  96.3046 263.8111 15.08832875119846,6917.902,95.438,540.772,538.763,0.0
52472.0,STARLINK-3881,PAYLOAD,2024-07-04 14:05:50,15.08839699,0.0001259,53.218,291.452,101.5965,258.5168,3.1371e-05,2.11e-06,0.0,0 STARLINK-3881,1 52472U 22049X   24186.58738640  .00000211  00000-0  31371-4 0  9992,2 52472  53.2180 291.4520 0001259 101.5965 258.5168 15.08839699119697,6917.881,95.438,540.617,538.875,0.0
52472.0,STARLINK-3881,PAYLOAD,2024-07-04 23:38:08,15.08843721,0.0001294,53.2174,289.6662,100.1135,260.0003,3.2296e-05,2.26e-06,0.0,0 STARLINK-3881,1 52472U 22049X   24186.98482341  .00000226  00000-0  32296-4 0  9993,2 52472  53.2174 289.6662 0001294 100.1135 260.0003 15.08843721119911,6917.869,95.437,540.629,538.839,0.0
52472.0,STARLINK-3881,PAYLOAD,2024-07-05 13:56:36,15.08843643,0.0001345,53.2179,286.9906,104.6424,255.4717,0.00012923,1.77e-05,0.0,0 STARLINK-3881,1 52472U 22049X   24187.58098371  .00001770  00000-0  12923-3 0  9995,2 52472  53.2179 286.9906 0001345 104.6424 255.4717 15.08843643119849,6917.869,95.437,540.665,538.804,0.0
52472.0,STARLINK-3881,PAYLOAD,2024-07-06 05:50:28,15.08837725,0.0001557,53.2174,284.0184,113.2506,246.865,8.0744e-05,9.97e-06,0.0,0 STARLINK-3881,1 52472U 22049X   24188.24338976  .00000997  00000-0  80744-4 0  9994,2 52472  53.2174 284.0184 0001557 113.2506 246.8650 15.08837725120108,6917.887,95.438,540.829,538.675,0.0
52472.0,STARLINK-3881,PAYLOAD,2024-07-06 13:47:24,15.08838875,0.0001161,53.2172,282.528,100.9477,259.1646,4.9501e-05,5e-06,0.0,0 STARLINK-3881,1 52472U 22049X   24188.57458967  .00000500  00000-0  49501-4 0  9999,2 52472  53.2172 282.5280 0001161 100.9477 259.1646 15.08838875119991,6917.884,95.438,540.552,538.946,0.0
